{
    "links": {
        "self": "http://www.neowsapp.com/rest/v1/neo/3771796?api_key=iIulBulltgU6a56xZRHN4H3l9WmuAYTsLGpBGhQ2"
    },
    "id": "3771796",
    "neo_reference_id": "3771796",
    "name": "(2017 FP63)",
    "designation": "2017 FP63",
    "nasa_jpl_url": "http://ssd.jpl.nasa.gov/sbdb.cgi?sstr=3771796",
    "absolute_magnitude_h": 23.9,
    "estimated_diameter": {
        "kilometers": {
            "estimated_diameter_min": 0.04411182,
            "estimated_diameter_max": 0.0986370281
        },
        "meters": {
            "estimated_diameter_min": 44.1118199997,
            "estimated_diameter_max": 98.6370281305
        },
        "miles": {
            "estimated_diameter_min": 0.0274098057,
            "estimated_diameter_max": 0.0612901888
        },
        "feet": {
            "estimated_diameter_min": 144.7238235278,
            "estimated_diameter_max": 323.6123073718
        }
    },
    "is_potentially_hazardous_asteroid": false,
    "close_approach_data": [
        {
            "close_approach_date": "1976-01-07",
            "close_approach_date_full": "1976-Jan-07 22:02",
            "epoch_date_close_approach": 189900120000,
            "relative_velocity": {
                "kilometers_per_second": "4.8562462387",
                "kilometers_per_hour": "17482.4864593998",
                "miles_per_hour": "10862.9372113976"
            },
            "miss_distance": {
                "astronomical": "0.859932516",
                "lunar": "334.513748724",
                "kilometers": "128644072.73734092",
                "miles": "79935720.130387896"
            },
            "orbiting_body": "Juptr"
        },
        {
            "close_approach_date": "2017-04-13",
            "close_approach_date_full": "2017-Apr-13 20:12",
            "epoch_date_close_approach": 1492114320000,
            "relative_velocity": {
                "kilometers_per_second": "6.4163575512",
                "kilometers_per_hour": "23098.8871842508",
                "miles_per_hour": "14352.7502062363"
            },
            "miss_distance": {
                "astronomical": "0.1122323326",
                "lunar": "43.6583773814",
                "kilometers": "16789717.902091562",
                "miles": "10432646.9360930756"
            },
            "orbiting_body": "Earth"
        },
        {
            "close_approach_date": "2021-05-04",
            "close_approach_date_full": "2021-May-04 05:20",
            "epoch_date_close_approach": 1620105600000,
            "relative_velocity": {
                "kilometers_per_second": "14.0935820569",
                "kilometers_per_hour": "50736.895405007",
                "miles_per_hour": "31525.9337031834"
            },
            "miss_distance": {
                "astronomical": "0.0702635668",
                "lunar": "27.3325274852",
                "kilometers": "10511279.931882716",
                "miles": "6531406.4843288408"
            },
            "orbiting_body": "Mars"
        },
        {
            "close_approach_date": "2023-06-24",
            "close_approach_date_full": "2023-Jun-24 15:41",
            "epoch_date_close_approach": 1687621260000,
            "relative_velocity": {
                "kilometers_per_second": "5.6456070182",
                "kilometers_per_hour": "20324.1852655409",
                "miles_per_hour": "12628.6583390246"
            },
            "miss_distance": {
                "astronomical": "1.0720557538",
                "lunar": "417.0296882282",
                "kilometers": "160377257.289724406",
                "miles": "99653806.6714165628"
            },
            "orbiting_body": "Juptr"
        },
        {
            "close_approach_date": "2059-02-08",
            "close_approach_date_full": "2059-Feb-08 14:51",
            "epoch_date_close_approach": 2811941460000,
            "relative_velocity": {
                "kilometers_per_second": "4.3153435082",
                "kilometers_per_hour": "15535.2366295385",
                "miles_per_hour": "9652.9918935041"
            },
            "miss_distance": {
                "astronomical": "0.7530379852",
                "lunar": "292.9317762428",
                "kilometers": "112652878.615011524",
                "miles": "69999252.8628820712"
            },
            "orbiting_body": "Juptr"
        }
    ],
    "orbital_data": {
        "orbit_id": "8",
        "orbit_determination_date": "2017-04-23 06:18:25",
        "first_observation_date": "2017-03-21",
        "last_observation_date": "2017-04-22",
        "data_arc_in_days": 32,
        "observations_used": 46,
        "orbit_uncertainty": "6",
        "minimum_orbit_intersection": ".106081",
        "jupiter_tisserand_invariant": "3.116",
        "epoch_osculation": "2459000.5",
        "eccentricity": ".5846290164243299",
        "semi_major_axis": "2.659625981349742",
        "inclination": "1.966884715256063",
        "ascending_node_longitude": "288.0629658441824",
        "orbital_period": "1584.270287124851",
        "perihelion_distance": "1.104731459816649",
        "perihelion_argument": "280.2507806165466",
        "aphelion_distance": "4.214520502882834",
        "perihelion_time": "2459443.537936342166",
        "mean_anomaly": "259.326738385891",
        "mean_motion": ".2272339530228339",
        "equinox": "J2000",
        "orbit_class": {
            "orbit_class_type": "AMO",
            "orbit_class_description": "Near-Earth asteroid orbits similar to that of 1221 Amor",
            "orbit_class_range": "1.017 AU < q (perihelion) < 1.3 AU"
        }
    },
    "is_sentry_object": false
}